[{"OBJECT_NAME":"STARLINK-6115","OBJECT_ID":"2023-046AH","EPOCH":"2026-03-08T02:58:41.565216","MEAN_MOTION":15.03237821,"ECCENTRICITY":0.00021533,"INCLINATION":43.0032,"RA_OF_ASC_NODE":154.7214,"ARG_OF_PERICENTER":293.4469,"MEAN_ANOMALY":66.6148,"EPHEMERIS_TYPE":0,"CLASSIFICATION_TYPE":"U","NORAD_CAT_ID":56123,"ELEMENT_SET_NO":999,"REV_AT_EPOCH":16197,"BSTAR":0.0059276759,"MEAN_MOTION_DOT":0.0008234,"MEAN_MOTION_DDOT":0},{"OBJECT_NAME":"CZ-4B R\/B","OBJECT_ID":"2011-079B","EPOCH":"2026-03-09T23:23:58.850880","MEAN_MOTION":15.14795537,"ECCENTRICITY":0.01251775,"INCLINATION":98.4688,"RA_OF_ASC_NODE":256.8191,"ARG_OF_PERICENTER":336.5095,"MEAN_ANOMALY":23.0446,"EPHEMERIS_TYPE":0,"CLASSIFICATION_TYPE":"U","NORAD_CAT_ID":38039,"ELEMENT_SET_NO":999,"REV_AT_EPOCH":77480,"BSTAR":0.00026364037,"MEAN_MOTION_DOT":5.867e-5,"MEAN_MOTION_DDOT":0}]
